{"type": "FeatureCollection", "features": [ {"type": "Feature", "properties": {"norad_id": 40664, "name": "SKY MEXICO-1", "group": "intelsat", "lat": -0.035556394167810854, "lon": -129.84315620063654, "alt_km": 35780.43673520794, "timestamp": "2025-12-20T14:38:01.626465+00:00", "meta": {"OBJECT_NAME": "SKY MEXICO-1", "OBJECT_ID": "2015-026B", "EPOCH": "2025-12-20T02:35:02.289696", "MEAN_MOTION": 1.00272052, "ECCENTRICITY": 0.00023206, "INCLINATION": 0.0136, "RA_OF_ASC_NODE": 336.9823, "ARG_OF_PERICENTER": 308.4655, "MEAN_ANOMALY": 123.498, "EPHEMERIS_TYPE": 0, "CLASSIFICATION_TYPE": "U", "NORAD_CAT_ID": 40664, "ELEMENT_SET_NO": 999, "REV_AT_EPOCH": 3865, "BSTAR": 0, "MEAN_MOTION_DOT": -2.1e-06, "MEAN_MOTION_DDOT": 0}, "tle": {"line1": "1 40664U 15026B   25354.10766539 -.00000210  00000+0  00000+0 0  9992", "line2": "2 40664   0.0136 336.9823 0002320 308.4655 123.4980  1.00272052 38652"}}, "geometry": {"type": "Point", "coordinates": [-129.84315620063654, -0.035556394167810854]}}, {"type": "Feature", "properties": {"norad_id": 40874, "name": "INTELSAT 34 (IS-34)", "group": "intelsat", "lat": -0.042604197228698716, "lon": -106.55590853623377, "alt_km": 35786.652340048815, "timestamp": "2025-12-20T14:38:01.626477+00:00", "meta": {"OBJECT_NAME": "INTELSAT 34 (IS-34)", "OBJECT_ID": "2015-039A", "EPOCH": "2025-12-19T19:50:51.586080", "MEAN_MOTION": 1.00272065, "ECCENTRICITY": 6.62e-05, "INCLINATION": 0.0164, "RA_OF_ASC_NODE": 342.9377, "ARG_OF_PERICENTER": 169.2315, "MEAN_ANOMALY": 178.7132, "EPHEMERIS_TYPE": 0, "CLASSIFICATION_TYPE": "U", "NORAD_CAT_ID": 40874, "ELEMENT_SET_NO": 999, "REV_AT_EPOCH": 3782, "BSTAR": 0, "MEAN_MOTION_DOT": -2.61e-06, "MEAN_MOTION_DDOT": 0}, "tle": {"line1": "1 40874U 15039A   25353.82698595 -.00000261  00000+0  00000+0 0  9999", "line2": "2 40874   0.0164 342.9377 0000662 169.2315 178.7132  1.00272065 37824"}}, "geometry": {"type": "Point", "coordinates": [-106.55590853623377, -0.042604197228698716]}}, {"type": "Feature", "properties": {"norad_id": 41581, "name": "INTELSAT 31 (IS-31)", "group": "intelsat", "lat": -0.026927850311641018, "lon": -146.10743192469488, "alt_km": 35778.05279734997, "timestamp": "2025-12-20T14:38:01.626489+00:00", "meta": {"OBJECT_NAME": "INTELSAT 31 (IS-31)", "OBJECT_ID": "2016-035A", "EPOCH": "2025-12-20T05:04:10.677216", "MEAN_MOTION": 1.00271438, "ECCENTRICITY": 0.00019648, "INCLINATION": 0.0255, "RA_OF_ASC_NODE": 272.537, "ARG_OF_PERICENTER": 291.8357, "MEAN_ANOMALY": 225.6712, "EPHEMERIS_TYPE": 0, "CLASSIFICATION_TYPE": "U", "NORAD_CAT_ID": 41581, "ELEMENT_SET_NO": 999, "REV_AT_EPOCH": 3488, "BSTAR": 0, "MEAN_MOTION_DOT": -1.27e-06, "MEAN_MOTION_DDOT": 0}, "tle": {"line1": "1 41581U 16035A   25354.21123469 -.00000127  00000+0  00000+0 0  9990", "line2": "2 41581   0.0255 272.5370 0001964 291.8357 225.6712  1.00271438 34888"}}, "geometry": {"type": "Point", "coordinates": [-146.10743192469488, -0.026927850311641018]}}, {"type": "Feature", "properties": {"norad_id": 41747, "name": "INTELSAT 36 (IS-36)", "group": "intelsat", "lat": 0.012817160800123748, "lon": 17.43091866891785, "alt_km": 35782.739635213125, "timestamp": "2025-12-20T14:38:01.626500+00:00", "meta": {"OBJECT_NAME": "INTELSAT 36 (IS-36)", "OBJECT_ID": "2016-053A", "EPOCH": "2025-12-19T22:08:53.365632", "MEAN_MOTION": 1.00270121, "ECCENTRICITY": 0.00011718, "INCLINATION": 0.0108, "RA_OF_ASC_NODE": 359.0109, "ARG_OF_PERICENTER": 338.9337, "MEAN_ANOMALY": 151.5298, "EPHEMERIS_TYPE": 0, "CLASSIFICATION_TYPE": "U", "NORAD_CAT_ID": 41747, "ELEMENT_SET_NO": 999, "REV_AT_EPOCH": 3415, "BSTAR": 0, "MEAN_MOTION_DOT": 0, "MEAN_MOTION_DDOT": 0}, "tle": {"line1": "1 41747U 16053A   25353.92283988  .00000000  00000+0  00000+0 0  9993", "line2": "2 41747   0.0108 359.0109 0001171 338.9337 151.5298  1.00270121 34155"}}, "geometry": {"type": "Point", "coordinates": [17.43091866891785, 0.012817160800123748]}}, {"type": "Feature", "properties": {"norad_id": 41945, "name": "INTELSAT 32E (IS-32E)", "group": "intelsat", "lat": -0.02750162202673327, "lon": -94.26004445507832, "alt_km": 35788.45326603672, "timestamp": "2025-12-20T14:38:01.626512+00:00", "meta": {"OBJECT_NAME": "INTELSAT 32E (IS-32E)", "OBJECT_ID": "2017-007B", "EPOCH": "2025-12-19T06:12:37.307232", "MEAN_MOTION": 1.00269829, "ECCENTRICITY": 7.1e-05, "INCLINATION": 0.0325, "RA_OF_ASC_NODE": 74.0804, "ARG_OF_PERICENTER": 315.5885, "MEAN_ANOMALY": 108.4146, "EPHEMERIS_TYPE": 0, "CLASSIFICATION_TYPE": "U", "NORAD_CAT_ID": 41945, "ELEMENT_SET_NO": 999, "REV_AT_EPOCH": 3242, "BSTAR": 0, "MEAN_MOTION_DOT": -2.44e-06, "MEAN_MOTION_DDOT": 0}, "tle": {"line1": "1 41945U 17007B   25353.25876513 -.00000244  00000+0  00000+0 0  9992", "line2": "2 41945   0.0325  74.0804 0000710 315.5885 108.4146  1.00269829 32423"}}, "geometry": {"type": "Point", "coordinates": [-94.26004445507832, -0.02750162202673327]}}, {"type": "Feature", "properties": {"norad_id": 42818, "name": "INTELSAT 35E (IS-35E)", "group": "intelsat", "lat": -0.04391771672140388, "lon": -85.54802723676329, "alt_km": 35778.47884525578, "timestamp": "2025-12-20T14:38:01.626524+00:00", "meta": {"OBJECT_NAME": "INTELSAT 35E (IS-35E)", "OBJECT_ID": "2017-041A", "EPOCH": "2025-12-20T02:47:38.582592", "MEAN_MOTION": 1.00271193, "ECCENTRICITY": 0.00018472, "INCLINATION": 0.0187, "RA_OF_ASC_NODE": 21.3216, "ARG_OF_PERICENTER": 250.2139, "MEAN_ANOMALY": 184.8437, "EPHEMERIS_TYPE": 0, "CLASSIFICATION_TYPE": "U", "NORAD_CAT_ID": 42818, "ELEMENT_SET_NO": 999, "REV_AT_EPOCH": 3102, "BSTAR": 0, "MEAN_MOTION_DOT": -2.14e-06, "MEAN_MOTION_DDOT": 0}, "tle": {"line1": "1 42818U 17041A   25354.11641878 -.00000214  00000+0  00000+0 0  9997", "line2": "2 42818   0.0187  21.3216 0001847 250.2139 184.8437  1.00271193 31023"}}, "geometry": {"type": "Point", "coordinates": [-85.54802723676329, -0.04391771672140388]}}, {"type": "Feature", "properties": {"norad_id": 42950, "name": "INTELSAT 37E (IS-37E)", "group": "intelsat", "lat": -0.04352830286889265, "lon": -69.04903589787385, "alt_km": 35775.72867053081, "timestamp": "2025-12-20T14:38:01.626535+00:00", "meta": {"OBJECT_NAME": "INTELSAT 37E (IS-37E)", "OBJECT_ID": "2017-059A", "EPOCH": "2025-12-20T04:35:05.791200", "MEAN_MOTION": 1.00270811, "ECCENTRICITY": 0.00029565, "INCLINATION": 0.0195, "RA_OF_ASC_NODE": 27.509, "ARG_OF_PERICENTER": 231.5247, "MEAN_ANOMALY": 240.7649, "EPHEMERIS_TYPE": 0, "CLASSIFICATION_TYPE": "U", "NORAD_CAT_ID": 42950, "ELEMENT_SET_NO": 999, "REV_AT_EPOCH": 3027, "BSTAR": 0, "MEAN_MOTION_DOT": -1.17e-06, "MEAN_MOTION_DDOT": 0}, "tle": {"line1": "1 42950U 17059A   25354.19103925 -.00000117  00000+0  00000+0 0  9999", "line2": "2 42950   0.0195  27.5090 0002956 231.5247 240.7649  1.00270811 30270"}}, "geometry": {"type": "Point", "coordinates": [-69.04903589787385, -0.04352830286889265]}}, {"type": "Feature", "properties": {"norad_id": 43632, "name": "AZERSPACE 2 (IS-38)", "group": "intelsat", "lat": -0.012193720294385554, "lon": -5.934270404515268, "alt_km": 35785.578158197015, "timestamp": "2025-12-20T14:38:01.626547+00:00", "meta": {"OBJECT_NAME": "AZERSPACE 2 (IS-38)", "OBJECT_ID": "2018-074A", "EPOCH": "2025-12-20T04:53:04.070976", "MEAN_MOTION": 1.00270817, "ECCENTRICITY": 0.00011624, "INCLINATION": 0.0082, "RA_OF_ASC_NODE": 42.9819, "ARG_OF_PERICENTER": 229.623, "MEAN_ANOMALY": 294.8181, "EPHEMERIS_TYPE": 0, "CLASSIFICATION_TYPE": "U", "NORAD_CAT_ID": 43632, "ELEMENT_SET_NO": 999, "REV_AT_EPOCH": 2665, "BSTAR": 0, "MEAN_MOTION_DOT": 1.6e-06, "MEAN_MOTION_DDOT": 0}, "tle": {"line1": "1 43632U 18074A   25354.20351934  .00000160  00000+0  00000+0 0  9999", "line2": "2 43632   0.0082  42.9819 0001162 229.6230 294.8181  1.00270817 26655"}}, "geometry": {"type": "Point", "coordinates": [-5.934270404515268, -0.012193720294385554]}}, {"type": "Feature", "properties": {"norad_id": 43633, "name": "HORIZONS-3E", "group": "intelsat", "lat": -0.0039626752124666985, "lon": 117.91065540948404, "alt_km": 35789.21198468027, "timestamp": "2025-12-20T14:38:01.626558+00:00", "meta": {"OBJECT_NAME": "HORIZONS-3E", "OBJECT_ID": "2018-074B", "EPOCH": "2025-12-20T03:45:48.013344", "MEAN_MOTION": 1.00269734, "ECCENTRICITY": 6.113e-05, "INCLINATION": 0.0094, "RA_OF_ASC_NODE": 239.0964, "ARG_OF_PERICENTER": 65.1042, "MEAN_ANOMALY": 10.2189, "EPHEMERIS_TYPE": 0, "CLASSIFICATION_TYPE": "U", "NORAD_CAT_ID": 43633, "ELEMENT_SET_NO": 999, "REV_AT_EPOCH": 2654, "BSTAR": 0, "MEAN_MOTION_DOT": 0, "MEAN_MOTION_DDOT": 0}, "tle": {"line1": "1 43633U 18074B   25354.15680571  .00000000  00000+0  00000+0 0  9999", "line2": "2 43633   0.0094 239.0964 0000611  65.1042  10.2189  1.00269734 26543"}}, "geometry": {"type": "Point", "coordinates": [117.91065540948404, -0.0039626752124666985]}}, {"type": "Feature", "properties": {"norad_id": 44333, "name": "AT&T T-16", "group": "intelsat", "lat": 0.003942385145104489, "lon": -151.90490708538985, "alt_km": 35784.187651502216, "timestamp": "2025-12-20T14:38:01.626570+00:00", "meta": {"OBJECT_NAME": "AT&T T-16", "OBJECT_ID": "2019-034A", "EPOCH": "2025-12-20T05:59:17.334816", "MEAN_MOTION": 1.00272894, "ECCENTRICITY": 9.979e-05, "INCLINATION": 0.0237, "RA_OF_ASC_NODE": 62.8934, "ARG_OF_PERICENTER": 77.7615, "MEAN_ANOMALY": 297.398, "EPHEMERIS_TYPE": 0, "CLASSIFICATION_TYPE": "U", "NORAD_CAT_ID": 44333, "ELEMENT_SET_NO": 999, "REV_AT_EPOCH": 2383, "BSTAR": 0, "MEAN_MOTION_DOT": -9.2e-07, "MEAN_MOTION_DDOT": 0}, "tle": {"line1": "1 44333U 19034A   25354.24950619 -.00000092  00000+0  00000+0 0  9999", "line2": "2 44333   0.0237  62.8934 0000997  77.7615 297.3980  1.00272894 23838"}}, "geometry": {"type": "Point", "coordinates": [-151.90490708538985, 0.003942385145104489]}}]}